[{"OBJECT_NAME":"STARLINK-5944","OBJECT_ID":"2023-042R","EPOCH":"2026-03-09T23:07:52.749408","MEAN_MOTION":15.02536171,"ECCENTRICITY":0.00011431,"INCLINATION":43.0045,"RA_OF_ASC_NODE":54.4406,"ARG_OF_PERICENTER":266.9792,"MEAN_ANOMALY":93.092,"EPHEMERIS_TYPE":0,"CLASSIFICATION_TYPE":"U","NORAD_CAT_ID":56001,"ELEMENT_SET_NO":999,"REV_AT_EPOCH":16295,"BSTAR":3.5653266e-5,"MEAN_MOTION_DOT":2.78e-6,"MEAN_MOTION_DDOT":0},{"OBJECT_NAME":"COSMOS 249 DEB","OBJECT_ID":"1968-091DH","EPOCH":"2026-03-08T22:08:16.528992","MEAN_MOTION":13.42836717,"ECCENTRICITY":0.07285142,"INCLINATION":62.844,"RA_OF_ASC_NODE":186.5027,"ARG_OF_PERICENTER":204.8122,"MEAN_ANOMALY":151.6172,"EPHEMERIS_TYPE":0,"CLASSIFICATION_TYPE":"U","NORAD_CAT_ID":19317,"ELEMENT_SET_NO":999,"REV_AT_EPOCH":83390,"BSTAR":0.00069278588,"MEAN_MOTION_DOT":1.907e-5,"MEAN_MOTION_DDOT":0}]
